[{"OBJECT_NAME":"STARLINK-3726","OBJECT_ID":"2022-029AL","EPOCH":"2026-03-09T07:47:26.196000","MEAN_MOTION":15.08829473,"ECCENTRICITY":0.00013345,"INCLINATION":53.2169,"RA_OF_ASC_NODE":80.7606,"ARG_OF_PERICENTER":88.5591,"MEAN_ANOMALY":271.5554,"EPHEMERIS_TYPE":0,"CLASSIFICATION_TYPE":"U","NORAD_CAT_ID":52122,"ELEMENT_SET_NO":999,"REV_AT_EPOCH":22073,"BSTAR":-6.2234522e-5,"MEAN_MOTION_DOT":-1.278e-5,"MEAN_MOTION_DDOT":0},{"OBJECT_NAME":"DISKSAT B","OBJECT_ID":"2025-305B","EPOCH":"2026-03-09T19:33:34.074144","MEAN_MOTION":15.07484556,"ECCENTRICITY":0.00037827,"INCLINATION":45.0018,"RA_OF_ASC_NODE":250.2098,"ARG_OF_PERICENTER":311.4052,"MEAN_ANOMALY":48.6498,"EPHEMERIS_TYPE":0,"CLASSIFICATION_TYPE":"U","NORAD_CAT_ID":67220,"ELEMENT_SET_NO":999,"REV_AT_EPOCH":1231,"BSTAR":0.00082400752,"MEAN_MOTION_DOT":0.00012481,"MEAN_MOTION_DDOT":0}]
